[{"OBJECT_NAME":"STARLINK-32124","OBJECT_ID":"2024-132W","EPOCH":"2026-03-09T06:34:41.849472","MEAN_MOTION":15.30183261,"ECCENTRICITY":0.000119,"INCLINATION":53.1609,"RA_OF_ASC_NODE":54.5825,"ARG_OF_PERICENTER":101.6551,"MEAN_ANOMALY":258.4584,"EPHEMERIS_TYPE":0,"CLASSIFICATION_TYPE":"U","NORAD_CAT_ID":60298,"ELEMENT_SET_NO":999,"REV_AT_EPOCH":9149,"BSTAR":1.927397e-5,"MEAN_MOTION_DOT":2.12e-6,"MEAN_MOTION_DDOT":0},{"OBJECT_NAME":"FENGYUN 1C DEB","OBJECT_ID":"1999-025BRA","EPOCH":"2026-03-07T21:38:03.570144","MEAN_MOTION":15.14550758,"ECCENTRICITY":0.01045185,"INCLINATION":98.8762,"RA_OF_ASC_NODE":52.6466,"ARG_OF_PERICENTER":91.2586,"MEAN_ANOMALY":270.0618,"EPHEMERIS_TYPE":0,"CLASSIFICATION_TYPE":"U","NORAD_CAT_ID":31346,"ELEMENT_SET_NO":999,"REV_AT_EPOCH":773,"BSTAR":0.0014203897,"MEAN_MOTION_DOT":0.00030047,"MEAN_MOTION_DDOT":0}]
